{"type":"FeatureCollection","features":[{"type":"Feature","properties":{"ward_id":12,"name":"Velachery","population":45000,"area_km2":8.5,"flood_prone":true,"description":"Low-lying area, near Adayar river. Frequently flooded in 2015, 2021, 2023."},"geometry":{"type":"Polygon","coordinates":[[[80.235,12.965],[80.25,12.965],[80.25,12.978],[80.235,12.978],[80.235,12.965]]]}},{"type":"Feature","properties":{"ward_id":8,"name":"Saidapet","population":38000,"area_km2":6.2,"flood_prone":true,"description":"Near Cooum river. Water logging common during heavy rains."},"geometry":{"type":"Polygon","coordinates":[[[80.215,13],[80.228,13],[80.228,13.013],[80.215,13.013],[80.215,13]]]}},{"type":"Feature","properties":{"ward_id":15,"name":"T Nagar","population":52000,"area_km2":5.8,"flood_prone":false,"description":"Commercial area, better drainage. Less affected in 2015."},"geometry":{"type":"Polygon","coordinates":[[[80.23,13.028],[80.245,13.028],[80.245,13.04],[80.23,13.04],[80.23,13.028]]]}},{"type":"Feature","properties":{"ward_id":20,"name":"OMR (Thoraipakkam)","population":65000,"area_km2":12.5,"flood_prone":true,"description":"IT corridor. Major flooding in 2015, 2021. Employees stranded."},"geometry":{"type":"Polygon","coordinates":[[[80.235,12.91],[80.26,12.91],[80.26,12.94],[80.235,12.94],[80.235,12.91]]]}},{"type":"Feature","properties":{"ward_id":10,"name":"Mambalam","population":42000,"area_km2":7.1,"flood_prone":true,"description":"Near Cooum river. Railway station frequently flooded."},"geometry":{"type":"Polygon","coordinates":[[[80.228,13.023],[80.242,13.023],[80.242,13.036],[80.228,13.036],[80.228,13.023]]]}},{"type":"Feature","properties":{"ward_id":18,"name":"Adayar","population":35000,"area_km2":9.3,"flood_prone":true,"description":"Adayar river flows through. Bridge area severely flooded in 2015."},"geometry":{"type":"Polygon","coordinates":[[[80.25,12.935],[80.27,12.935],[80.27,12.95],[80.25,12.95],[80.25,12.935]]]}}]}
