{"type":"FeatureCollection","features":[{"type":"Feature","properties":{"name":"Velachery Main Road","type":"primary","length_km":4.5,"flood_prone":true},"geometry":{"type":"LineString","coordinates":[[80.2421,12.9716],[80.2456,12.9689],[80.2495,12.965]]}},{"type":"Feature","properties":{"name":"OMR (Rajiv Gandhi Salai)","type":"highway","length_km":25,"flood_prone":true},"geometry":{"type":"LineString","coordinates":[[80.2495,12.9352],[80.2425,12.9165],[80.238,12.9]]}},{"type":"Feature","properties":{"name":"Saidapet Main Road","type":"primary","length_km":3.2,"flood_prone":true},"geometry":{"type":"LineString","coordinates":[[80.2206,13.0067],[80.218,13.01],[80.215,13.015]]}},{"type":"Feature","properties":{"name":"Adayar Main Road","type":"primary","length_km":5.1,"flood_prone":true},"geometry":{"type":"LineString","coordinates":[[80.2589,12.9411],[80.262,12.945],[80.265,12.95]]}},{"type":"Feature","properties":{"name":"Mambalam High Road","type":"secondary","length_km":2.8,"flood_prone":true},"geometry":{"type":"LineString","coordinates":[[80.2348,13.0293],[80.232,13.032],[80.23,13.035]]}},{"type":"Feature","properties":{"name":"Thyagaraya Nagar (Ranganathan Street)","type":"secondary","length_km":1.5,"flood_prone":false},"geometry":{"type":"LineString","coordinates":[[80.2376,13.0339],[80.24,13.035],[80.242,13.037]]}}]}
